start=new Date('2022-10-09T00:00:00.000Z').valueOf();
sats=[{"TLE_LINE2":"2 53027  53.2145 285.5581 0001490  75.7220 113.4215 15.08869799  1303","NORAD_CAT_ID":"53027","PERIAPSIS":"538.624","SITE":"AFETR","GP_ID":"214508170","BSTAR":"-0.00539160000000","TIME_SYSTEM":"UTC","INCLINATION":"53.2145","COUNTRY_CODE":"US","MEAN_MOTION_DOT":"-0.00085151","ARG_OF_PERICENTER":"75.7220","DECAY_DATE":null,"OBJECT_TYPE":"PAYLOAD","EPHEMERIS_TYPE":"0","OBJECT_NAME":"STARLINK-4158","RA_OF_ASC_NODE":"285.5581","LAUNCH_DATE":"2022-07-07","ECCENTRICITY":"0.00014900","RCS_SIZE":"LARGE","CENTER_NAME":"EARTH","OBJECT_ID":"2022-076AT","MEAN_ANOMALY":"113.4215","SEMIMAJOR_AXIS":"6917.789","REV_AT_EPOCH":"130","REF_FRAME":"TEME","MEAN_MOTION_DDOT":"0.0000000000000","FILE":"3596607","MEAN_MOTION":"15.08869799","TLE_LINE1":"1 53027U 22076AT  22281.91667824 -.00085151  00000-0 -53916-2 0  9990","ELEMENT_SET_NO":"999","PERIOD":"95.436","APOAPSIS":"540.685","CLASSIFICATION_TYPE":"U","EPOCH":"2022-10-08T22:00:00.999936","MEAN_ELEMENT_THEORY":"SGP4"},{"NORAD_CAT_ID":"53028","TLE_LINE2":"2 53028  53.2117 276.0676 0005542  72.9772  21.9687 15.81402598  1303","SITE":"AFETR","PERIAPSIS":"322.760","TIME_SYSTEM":"UTC","BSTAR":"0.00091758000000","GP_ID":"214508493","INCLINATION":"53.2117","OBJECT_TYPE":"PAYLOAD","DECAY_DATE":null,"COUNTRY_CODE":"US","ARG_OF_PERICENTER":"72.9772","MEAN_MOTION_DOT":"0.00189123","EPHEMERIS_TYPE":"0","RA_OF_ASC_NODE":"276.0676","OBJECT_NAME":"STARLINK-4161","ECCENTRICITY":"0.00055420","LAUNCH_DATE":"2022-07-07","OBJECT_ID":"2022-076AU","MEAN_ANOMALY":"21.9687","CENTER_NAME":"EARTH","RCS_SIZE":"LARGE","MEAN_MOTION_DDOT":"0.0000000000000","REF_FRAME":"TEME","REV_AT_EPOCH":"130","SEMIMAJOR_AXIS":"6704.610","FILE":"3596607","TLE_LINE1":"1 53028U 22076AU  22281.91667824  .00189123  00000-0  91758-3 0  9990","MEAN_MOTION":"15.81402598","PERIOD":"91.058","ELEMENT_SET_NO":"999","CLASSIFICATION_TYPE":"U","APOAPSIS":"330.191","MEAN_ELEMENT_THEORY":"SGP4","EPOCH":"2022-10-08T22:00:00.999936"},{"RCS_SIZE":"LARGE","CENTER_NAME":"EARTH","OBJECT_ID":"2022-076AV","MEAN_ANOMALY":"319.4784","LAUNCH_DATE":"2022-07-07","ECCENTRICITY":"0.00011700","FILE":"3596607","SEMIMAJOR_AXIS":"6795.822","REV_AT_EPOCH":"130","REF_FRAME":"TEME","MEAN_MOTION_DDOT":"0.0000000000000","ELEMENT_SET_NO":"999","PERIOD":"92.923","MEAN_MOTION":"15.49672082","TLE_LINE1":"1 53029U 22076AV  22281.91667824 -.01035782  00000-0 -20208-1 0  9995","EPOCH":"2022-10-08T22:00:00.999936","MEAN_ELEMENT_THEORY":"SGP4","APOAPSIS":"418.482","CLASSIFICATION_TYPE":"U","PERIAPSIS":"416.891","SITE":"AFETR","TLE_LINE2":"2 53029  53.2167 278.2943 0001170  64.9161 319.4784 15.49672082  1300","NORAD_CAT_ID":"53029","GP_ID":"214508331","BSTAR":"-0.02020800000000","TIME_SYSTEM":"UTC","COUNTRY_CODE":"US","ARG_OF_PERICENTER":"64.9161","MEAN_MOTION_DOT":"-0.01035782","OBJECT_TYPE":"PAYLOAD","DECAY_DATE":null,"INCLINATION":"53.2167","OBJECT_NAME":"STARLINK-4143","RA_OF_ASC_NODE":"278.2943","EPHEMERIS_TYPE":"0"},{"CENTER_NAME":"EARTH","OBJECT_ID":"2022-076AW","MEAN_ANOMALY":"79.8654","RCS_SIZE":"LARGE","ECCENTRICITY":"0.00013990","LAUNCH_DATE":"2022-07-07","FILE":"3596607","REF_FRAME":"TEME","MEAN_MOTION_DDOT":"0.0000000000000","SEMIMAJOR_AXIS":"6917.856","REV_AT_EPOCH":"130","ELEMENT_SET_NO":"999","PERIOD":"95.437","TLE_LINE1":"1 53030U 22076AW  22281.91667824  .00010739  00000-0  69163-3 0  9994","MEAN_MOTION":"15.08847919","MEAN_ELEMENT_THEORY":"SGP4","EPOCH":"2022-10-08T22:00:00.999936","APOAPSIS":"540.689","CLASSIFICATION_TYPE":"U","SITE":"AFETR","PERIAPSIS":"538.753","NORAD_CAT_ID":"53030","TLE_LINE2":"2 53030  53.2149 285.5732 0001399  69.1670  79.8654 15.08847919  1305","TIME_SYSTEM":"UTC","BSTAR":"0.00069163000000","GP_ID":"214509071","DECAY_DATE":null,"OBJECT_TYPE":"PAYLOAD","MEAN_MOTION_DOT":"0.00010739","COUNTRY_CODE":"US","ARG_OF_PERICENTER":"69.1670","INCLINATION":"53.2149","RA_OF_ASC_NODE":"285.5732","OBJECT_NAME":"STARLINK-4160","EPHEMERIS_TYPE":"0"},{"OBJECT_TYPE":"PAYLOAD","DECAY_DATE":null,"COUNTRY_CODE":"US","MEAN_MOTION_DOT":"-0.00458106","ARG_OF_PERICENTER":"71.9546","INCLINATION":"53.2174","RA_OF_ASC_NODE":"278.3337","OBJECT_NAME":"STARLINK-4137","EPHEMERIS_TYPE":"0","SITE":"AFETR","PERIAPSIS":"415.776","NORAD_CAT_ID":"53031","TLE_LINE2":"2 53031  53.2174 278.3337 0001369  71.9546 315.0527 15.50007399  1306","BSTAR":"-0.00850780000000","TIME_SYSTEM":"UTC","GP_ID":"214508588","PERIOD":"92.903","ELEMENT_SET_NO":"999","TLE_LINE1":"1 53031U 22076AX  22281.91667824 -.00458106  00000-0 -85078-2 0  9993","MEAN_MOTION":"15.50007399","MEAN_ELEMENT_THEORY":"SGP4","EPOCH":"2022-10-08T22:00:00.999936","APOAPSIS":"417.637","CLASSIFICATION_TYPE":"U","MEAN_ANOMALY":"315.0527","CENTER_NAME":"EARTH","OBJECT_ID":"2022-076AX","RCS_SIZE":"LARGE","ECCENTRICITY":"0.00013690","LAUNCH_DATE":"2022-07-07","FILE":"3596607","REF_FRAME":"TEME","MEAN_MOTION_DDOT":"0.0000000000000","SEMIMAJOR_AXIS":"6794.841","REV_AT_EPOCH":"130"},{"OBJECT_NAME":"STARLINK-4115","RA_OF_ASC_NODE":"285.5704","EPHEMERIS_TYPE":"0","COUNTRY_CODE":"US","ARG_OF_PERICENTER":"61.8021","MEAN_MOTION_DOT":"0.00023792","DECAY_DATE":null,"OBJECT_TYPE":"PAYLOAD","INCLINATION":"53.2160","GP_ID":"214508909","BSTAR":"0.00150950000000","TIME_SYSTEM":"UTC","PERIAPSIS":"538.692","SITE":"AFETR","TLE_LINE2":"2 53032  53.2160 285.5704 0001693  61.8021 107.3610 15.08801591  1300","NORAD_CAT_ID":"53032","EPOCH":"2022-10-08T22:00:00.999936","MEAN_ELEMENT_THEORY":"SGP4","CLASSIFICATION_TYPE":"U","APOAPSIS":"541.034","PERIOD":"95.440","ELEMENT_SET_NO":"999","MEAN_MOTION":"15.08801591","TLE_LINE1":"1 53032U 22076AY  22281.91667824  .00023792  00000-0  15095-2 0  9993","FILE":"3596607","REV_AT_EPOCH":"130","SEMIMAJOR_AXIS":"6917.998","MEAN_MOTION_DDOT":"0.0000000000000","REF_FRAME":"TEME","RCS_SIZE":"LARGE","OBJECT_ID":"2022-076AY","CENTER_NAME":"EARTH","MEAN_ANOMALY":"107.3610","LAUNCH_DATE":"2022-07-07","ECCENTRICITY":"0.00016930"},{"CLASSIFICATION_TYPE":"U","APOAPSIS":"417.732","MEAN_ELEMENT_THEORY":"SGP4","EPOCH":"2022-10-08T22:00:00.999936","TLE_LINE1":"1 53033U 22076AZ  22281.91667824 -.00662506  00000-0 -12649-1 0  9999","MEAN_MOTION":"15.49966269","ELEMENT_SET_NO":"999","PERIOD":"92.905","MEAN_MOTION_DDOT":"0.0000000000000","REF_FRAME":"TEME","REV_AT_EPOCH":"130","SEMIMAJOR_AXIS":"6794.962","FILE":"3596607","ECCENTRICITY":"0.00013330","LAUNCH_DATE":"2022-07-07","CENTER_NAME":"EARTH","OBJECT_ID":"2022-076AZ","MEAN_ANOMALY":"313.6087","RCS_SIZE":"LARGE","EPHEMERIS_TYPE":"0","RA_OF_ASC_NODE":"278.3205","OBJECT_NAME":"STARLINK-4167","INCLINATION":"53.2174","DECAY_DATE":null,"OBJECT_TYPE":"PAYLOAD","MEAN_MOTION_DOT":"-0.00662506","COUNTRY_CODE":"US","ARG_OF_PERICENTER":"72.5672","TIME_SYSTEM":"UTC","BSTAR":"-0.01264900000000","GP_ID":"214508748","NORAD_CAT_ID":"53033","TLE_LINE2":"2 53033  53.2174 278.3205 0001333  72.5672 313.6087 15.49966269  1303","SITE":"AFETR","PERIAPSIS":"415.921"},{"NORAD_CAT_ID":"53034","TLE_LINE2":"2 53034  53.2161 278.3081 0001232  62.2348 323.0689 15.49887392  1308","SITE":"AFETR","PERIAPSIS":"416.220","BSTAR":"-0.01782700000000","TIME_SYSTEM":"UTC","GP_ID":"214509305","INCLINATION":"53.2161","DECAY_DATE":null,"OBJECT_TYPE":"PAYLOAD","ARG_OF_PERICENTER":"62.2348","COUNTRY_CODE":"US","MEAN_MOTION_DOT":"-0.00929945","EPHEMERIS_TYPE":"0","RA_OF_ASC_NODE":"278.3081","OBJECT_NAME":"STARLINK-4151","ECCENTRICITY":"0.00012320","LAUNCH_DATE":"2022-07-07","CENTER_NAME":"EARTH","OBJECT_ID":"2022-076BA","MEAN_ANOMALY":"323.0689","RCS_SIZE":"LARGE","MEAN_MOTION_DDOT":"0.0000000000000","REF_FRAME":"TEME","REV_AT_EPOCH":"130","SEMIMAJOR_AXIS":"6795.192","FILE":"3596607","TLE_LINE1":"1 53034U 22076BA  22281.91667824 -.00929945  00000-0 -17827-1 0  9996","MEAN_MOTION":"15.49887392","ELEMENT_SET_NO":"999","PERIOD":"92.910","CLASSIFICATION_TYPE":"U","APOAPSIS":"417.894","MEAN_ELEMENT_THEORY":"SGP4","EPOCH":"2022-10-08T22:00:00.999936"},{"EPHEMERIS_TYPE":"0","RA_OF_ASC_NODE":"278.3467","OBJECT_NAME":"STARLINK-4157","INCLINATION":"53.2174","OBJECT_TYPE":"PAYLOAD","DECAY_DATE":null,"MEAN_MOTION_DOT":"-0.00217916","COUNTRY_CODE":"US","ARG_OF_PERICENTER":"79.7224","TIME_SYSTEM":"UTC","BSTAR":"-0.00392810000000","GP_ID":"214508171","NORAD_CAT_ID":"53035","TLE_LINE2":"2 53035  53.2174 278.3467 0001307  79.7224 308.1291 15.49964450  1304","SITE":"AFETR","PERIAPSIS":"415.944","APOAPSIS":"417.720","CLASSIFICATION_TYPE":"U","MEAN_ELEMENT_THEORY":"SGP4","EPOCH":"2022-10-08T22:00:00.999936","TLE_LINE1":"1 53035U 22076BB  22281.91667824 -.00217916  00000-0 -39281-2 0  9994","MEAN_MOTION":"15.49964450","PERIOD":"92.905","ELEMENT_SET_NO":"999","REF_FRAME":"TEME","MEAN_MOTION_DDOT":"0.0000000000000","SEMIMAJOR_AXIS":"6794.967","REV_AT_EPOCH":"130","FILE":"3596607","ECCENTRICITY":"0.00013070","LAUNCH_DATE":"2022-07-07","MEAN_ANOMALY":"308.1291","OBJECT_ID":"2022-076BB","CENTER_NAME":"EARTH","RCS_SIZE":"LARGE"},{"ECCENTRICITY":"0.00013610","LAUNCH_DATE":"2022-07-07","MEAN_ANOMALY":"322.7064","CENTER_NAME":"EARTH","OBJECT_ID":"2022-076BC","RCS_SIZE":"MEDIUM","REF_FRAME":"TEME","MEAN_MOTION_DDOT":"0.0000000000000","SEMIMAJOR_AXIS":"6795.202","REV_AT_EPOCH":"130","FILE":"3596607","TLE_LINE1":"1 53036U 22076BC  22281.91667824  .00003414  00000-0  68073-4 0  9992","MEAN_MOTION":"15.49883958","ELEMENT_SET_NO":"999","PERIOD":"92.910","APOAPSIS":"417.992","CLASSIFICATION_TYPE":"U","MEAN_ELEMENT_THEORY":"SGP4","EPOCH":"2022-10-08T22:00:00.999936","NORAD_CAT_ID":"53036","TLE_LINE2":"2 53036  53.2174 278.3589 0001361  66.0038 322.7064 15.49883958  1305","SITE":"AFETR","PERIAPSIS":"416.142","TIME_SYSTEM":"UTC","BSTAR":"0.00006807300000","GP_ID":"214508494","INCLINATION":"53.2174","OBJECT_TYPE":"PAYLOAD","DECAY_DATE":null,"COUNTRY_CODE":"US","MEAN_MOTION_DOT":"0.00003414","ARG_OF_PERICENTER":"66.0038","EPHEMERIS_TYPE":"0","RA_OF_ASC_NODE":"278.3589","OBJECT_NAME":"STARLINK-4155"}];
